S-NET D                 
1 43186U 18014G   22147.31880761  .00001716  00000+0  15074-3 0  9990
2 43186  97.6602  53.4627 0011281  15.7264 344.4306 14.97843333235750
S-NET B                 
1 43187U 18014H   22147.31891617  .00001739  00000+0  15270-3 0  9996
2 43187  97.6599  53.4152 0011264  16.2635 343.8947 14.97841744235756
S-NET A                 
1 43188U 18014J   22147.51959753  .00001755  00000+0  15405-3 0  9993
2 43188  97.6601  53.6741 0011241  14.9782 345.1771 14.97841546235783
S-NET C                 
1 43189U 18014K   22147.52027376  .00001769  00000+0  15520-3 0  9995
2 43189  97.6595  53.6018 0011209  14.6187 345.5358 14.97839061234337
FENGMANIU-1 (FMN-1)     
1 43192U 18015A   22147.74246316  .00035865  00000+0  97322-3 0  9995
2 43192  97.5311 292.3105 0011603 106.5765   2.9120 15.37457348240265
SHAONIAN XING           
1 43199U 18015H   22147.76301293  .00023127  00000+0  70787-3 0  9994
2 43199  97.5097 287.7218 0014426 116.5879 349.2290 15.33732160240279
LUOJIA-1 01             
1 43485U 18048B   22147.81868036  .00001867  00000+0  27000-3 0  9994
2 43485  97.9333 229.4071 0009859 266.0446  93.9617 14.77317897214820
SURFSAT                 
1 43614U 18070B   22147.85075049  .00049568  00000+0  76528-3 0  9990
2 43614  93.0309  90.0067 0015222  98.8847 261.4139 15.53827988207867
CP7 (DAVE)              
1 43615U 18070C   22147.58662294  .00035231  00000+0  56691-3 0  9996
2 43615  93.0297  89.7657 0015269 100.5886 259.7096 15.52730142207797
ELFIN-B                 
1 43616U 18070D   22147.80380649  .00078065  00000+0  80970-3 0  9992
2 43616  93.0207  90.9042 0014326  96.6380 263.6519 15.64288562208127
ELFIN-A                 
1 43617U 18070E   22147.83483651  .00110645  00000+0  10602-2 0  9998
2 43617  93.0281  92.2189 0013418  94.5402 265.7400 15.66204964208173
CZ-4B R/B               
1 43656U 18081B   22147.81354217  .00000337  00000+0  11972-3 0  9994
2 43656  99.3941 279.9782 0208024 203.1914 155.9775 14.30563651187404
CUBEBEL-1 (BSUSAT-1)    
1 43666U 18083E   22147.83332458  .00013560  00000+0  57869-3 0  9999
2 43666  97.4212 176.7554 0014332  50.9036  55.0258 15.22929515198344
CHANGSHAGAOXIN (TY 4-01)
1 43669U 18083H   22147.86097400  .00012657  00000+0  56606-3 0  9994
2 43669  97.4168 172.8240 0011189  52.3808  65.5589 15.21385690198179
TEN-KOH                 
1 43677U 18084G   22147.87776523  .00001448  00000+0  15190-3 0  9994
2 43677  97.9610 277.7453 0015331 344.2733  15.8006 14.91054308194611
DIWATA-2B               
1 43678U 18084H   22147.79554077  .00001612  00000+0  16409-3 0  9991
2 43678  97.9667 280.8229 0009715   2.3115 357.8166 14.92144416194779
STARS-AO                
1 43679U 18084J   22147.62141636  .00002083  00000+0  20353-3 0  9993
2 43679  97.9709 282.5080 0008930   7.6233 352.5120 14.93484412194831
AUTCUBE 2               
1 43681U 18084K   22147.62935194  .00001931  00000+0  19201-3 0  9997
2 43681  97.9671 281.1981 0009152   1.8423 358.2828 14.92868405194746
IRVINE01                
1 43693U 18088D   22147.50313766  .00036461  00000+0  10180-2 0  9998
2 43693  85.0275 325.0402 0012891 182.6946 177.4237 15.36478024197005
ES'HAIL 2               
1 43700U 18090A   22147.75049177  .00000147  00000+0  00000+0 0  9998
2 43700   0.0418 110.6252 0000984 322.8914 107.7191  1.00274002 13068
FACSAT-1                
1 43721U 18096C   22147.79561480  .00026817  00000+0  77259-3 0  9993
2 43721  97.3503 227.6443 0015429 127.1870 354.1064 15.35595532194809
CENTAURI-2              
1 43722U 18096D   22147.48906279  .00026340  00000+0  68934-3 0  9990
2 43722  97.3562 229.1971 0014021 126.1046 234.1500 15.38605454194854
3CAT-1                  
1 43728U 18096K   22147.49404440  .00025969  00000+0  67785-3 0  9999
2 43728  97.3575 229.9478 0014149 128.3781 231.8738 15.38687108194892
INNOSAT-2               
1 43738U 18096V   22147.81553667  .00062993  00000+0  12133-2 0  9996
2 43738  97.3647 236.2464 0014675 120.0597  32.4777 15.47548436195313
REAKTOR HELLO WORLD     
1 43743U 18096AA  22147.19630459  .00012828  00000+0  39659-3 0  9993
2 43743  97.3538 227.1594 0016544 133.4720 226.7902 15.33506756194708
ELYSIUM STAR 2 & LFF    
1 43760U 18099C   22147.56423091  .00004970  00000+0  42049-3 0  9994
2 43760  97.6310 216.5555 0012484 338.7648  21.3055 14.98427661189995
2018-099D               
1 43761U 18099D   22147.86744630  .00002184  00000+0  20035-3 0  9999
2 43761  97.6235 215.1413 0013868 343.9067  16.1708 14.95832195189941
AISTECHSAT 2            
1 43768U 18099L   22147.49601588  .00001741  00000+0  16142-3 0  9991
2 43768  97.6181 213.3291 0010718 345.6635  14.4280 14.95685699189551
FOX-1CLIFF (AO-95)      
1 43770U 18099N   22147.45973174  .00003156  00000+0  28348-3 0  9996
2 43770  97.6217 214.3546 0013539 352.6693   7.4329 14.96347762189872
RANGE-A                 
1 43772U 18099Q   22147.46277761  .00003834  00000+0  33813-3 0  9994
2 43772  97.6322 215.9827 0012662 338.2436  21.8246 14.96948194189897
RANGE-B                 
1 43773U 18099R   22147.44314603  .00002014  00000+0  18450-3 0  9999
2 43773  97.6137 213.2542 0012555 338.7676  21.3023 14.95965410189852
2018-099T               
1 43775U 18099T   22147.16754131  .00001339  00000+0  12442-3 0  9998
2 43775  97.6207 214.2032 0013767 344.5917  15.4883 14.95942402189827
MOVE-II                 
1 43780U 18099Y   22147.16959050  .00003742  00000+0  32492-3 0  9998
2 43780  97.6253 215.1433 0012406 347.5087  12.5826 14.97565744189871
SNUSAT-2                
1 43782U 18099AA  22147.44229718  .00002407  00000+0  21655-3 0  9998
2 43782  97.6214 214.7941 0011720 336.6563  23.4125 14.96520064189895
SNUGLITE                
1 43784U 18099AC  22147.41597877  .00002697  00000+0  24059-3 0  9993
2 43784  97.6192 214.4137 0014087 346.2644  13.8193 14.96732042189914
ITASAT 1                
1 43786U 18099AE  22147.45513979  .00002570  00000+0  23084-3 0  9997
2 43786  97.6238 215.2570 0014090 344.1168  15.9610 14.96505249189913
KAZSCISAT-1             
1 43787U 18099AF  22147.42053015  .00003392  00000+0  29448-3 0  9998
2 43787  97.6172 214.4010 0012926 341.1952  18.8791 14.97627432189951
EAGLET-I                
1 43790U 18099AJ  22147.41978312  .00001904  00000+0  17150-3 0  9991
2 43790  97.6244 215.7513 0012675 350.3309   9.7667 14.96704047189640
ESEO                    
1 43792U 18099AL  22147.07907957  .00001417  00000+0  13066-3 0  9993
2 43792  97.6192 214.6684 0012696 348.6953  11.3981 14.96160108189630
CSIM-FD                 
1 43793U 18099AM  22147.41988612  .00004554  00000+0  38738-3 0  9997
2 43793  97.6278 216.2531 0011426 342.8423  17.2412 14.98263465189730
ASTROCAST 0.1           
1 43798U 18099AS  22147.41913736  .00004008  00000+0  34835-3 0  9995
2 43798  97.6263 216.1779 0010777 326.6363  33.4179 14.97505648189969
JY1SAT (JO-97)          
1 43803U 18099AX  22147.14549120  .00003487  00000+0  30757-3 0  9993
2 43803  97.6215 214.7051 0013969 346.3820  13.7023 14.96985652189889
SUOMI-100               
1 43804U 18099AY  22147.69671897  .00002160  00000+0  19286-3 0  9992
2 43804  97.6196 215.1692 0014248 342.6182  17.4551 14.96893335189978
AL-FARABI 2             
1 43805U 18099AZ  22147.89193028  .00005539  00000+0  47975-3 0  9999
2 43805  97.6240 215.8162 0014310 341.9311  18.1387 14.97445317190021
CENTAURI-1              
1 43809U 18099BD  22147.45884513  .00002499  00000+0  22380-3 0  9996
2 43809  97.6210 215.2562 0014128 345.0721  15.0082 14.96644652189632
CHOMPTT                 
1 43855U 18104G   22147.80619563  .00008874  00000+0  32948-3 0  9998
2 43855  85.0374  64.9111 0013686 323.3717  36.6591 15.27318539191573
DAVINCI                 
1 43857U 18104J   22147.50393626  .00036327  00000+0  10176-2 0  9998
2 43857  85.0290  63.3493 0009684 357.1129   3.0063 15.36413584191649
UWE-4                   
1 43880U 18111E   22147.49458714  .00004188  00000+0  35846-3 0  9992
2 43880  97.6711  54.1704 0013280  40.1430 320.0771 14.98060767186567
ZACUBE-2                
1 43907U 18111AH  22147.74724009  .00011742  00000+0  43669-3 0  9999
2 43907  97.1927  34.7811 0021248 148.8188 297.5895 15.27446754190133
MICRODRAGON             
1 43935U 19003D   22147.56522529  .00006633  00000+0  26297-3 0  9995
2 43935  97.1381 178.6332 0015215 245.2541 114.7115 15.25599533186510
AOBA VELOX-IV           
1 43940U 19003J   22147.65151840  .00029341  00000+0  82428-3 0  9994
2 43940  97.1275 184.1301 0017871 213.4903 146.5213 15.36321790186933
M6P                     
1 44109U 19018AF  22147.56821931  .00018262  00000+0  45579-3 0  9999
2 44109  97.3964 231.5072 0048163 201.1139 158.8119 15.39012494176248
FORMOSAT 7-4            
1 44350U 19036M   22147.40817214  .00003975  00000+0  22194-3 0  9992
2 44350  23.9985 168.3575 0005826 187.0698 172.9723 15.09253630160359
PAINANI 1               
1 44365U 19037A   22147.40269793  .00035082  00000+0  55527-3 0  9992
2 44365  44.9978 130.4267 0008495  89.4996 270.6870 15.52844385163969
ACRUX 1                 
1 44369U 19037E   22146.19575296  .00437425  79178-4  15377-2 0  9991
2 44369  44.9934  80.8024 0014405 161.5454 198.5977 15.88259070164397
METEOR-M2 2             
1 44387U 19038A   22147.91165219  .00000052  00000+0  42006-4 0  9999
2 44387  98.7210 108.8569 0001464  22.1209 338.0040 14.23710411150483
VDNH-80                 
1 44392U 19038G   22147.71684130  .00010832  00000+0  55077-3 0  9999
2 44392  97.6326 117.5042 0018551 197.7775 241.1600 15.16884907159705
D-STAR ONE (LIGHTSAT)   
1 44393U 19038H   22147.84677979  .00009768  00000+0  49672-3 0  9997
2 44393  97.6338 117.5131 0019147 197.6960 162.3608 15.16901435159916
AMGU-1 (AMURSAT)        
1 44394U 19038J   22147.65521291  .00012501  00000+0  63082-3 0  9992
2 44394  97.6323 117.2675 0018568 201.0271 159.0163 15.17113536159885
